<?xml version="1.0" encoding="UTF-8"?>
<ndm xmlns:xsi="http://www.w3.org/2001/XMLSchema-instance" xsi:noNamespaceSchemaLocation="https://sanaregistry.org/r/ndmxml_unqualified/ndmxml-2.0.0-master-2.0.xsd">
<omm id="CCSDS_OMM_VERS" version="2.0">
<header><CREATION_DATE/><ORIGINATOR/></header><body><segment><metadata><OBJECT_NAME>ORBCOMM-X [-]</OBJECT_NAME><OBJECT_ID>1991-050C</OBJECT_ID><CENTER_NAME>EARTH</CENTER_NAME><REF_FRAME>TEME</REF_FRAME><TIME_SYSTEM>UTC</TIME_SYSTEM><MEAN_ELEMENT_THEORY>SGP4</MEAN_ELEMENT_THEORY></metadata><data><meanElements><EPOCH>2024-04-23T18:23:14.571168</EPOCH><MEAN_MOTION>14.42460186</MEAN_MOTION><ECCENTRICITY>.0004051</ECCENTRICITY><INCLINATION>98.3925</INCLINATION><RA_OF_ASC_NODE>182.8614</RA_OF_ASC_NODE><ARG_OF_PERICENTER>32.4101</ARG_OF_PERICENTER><MEAN_ANOMALY>327.7337</MEAN_ANOMALY></meanElements><tleParameters><EPHEMERIS_TYPE>0</EPHEMERIS_TYPE><CLASSIFICATION_TYPE>U</CLASSIFICATION_TYPE><NORAD_CAT_ID>21576</NORAD_CAT_ID><ELEMENT_SET_NO>999</ELEMENT_SET_NO><REV_AT_EPOCH>72163</REV_AT_EPOCH><BSTAR>.3693E-3</BSTAR><MEAN_MOTION_DOT>.118E-4</MEAN_MOTION_DOT><MEAN_MOTION_DDOT>0</MEAN_MOTION_DDOT></tleParameters></data></segment></body></omm>
<omm id="CCSDS_OMM_VERS" version="2.0">
<header><CREATION_DATE/><ORIGINATOR/></header><body><segment><metadata><OBJECT_NAME>ORBCOMM FM01 [-]</OBJECT_NAME><OBJECT_ID>1995-017A</OBJECT_ID><CENTER_NAME>EARTH</CENTER_NAME><REF_FRAME>TEME</REF_FRAME><TIME_SYSTEM>UTC</TIME_SYSTEM><MEAN_ELEMENT_THEORY>SGP4</MEAN_ELEMENT_THEORY></metadata><data><meanElements><EPOCH>2024-04-23T22:36:41.139648</EPOCH><MEAN_MOTION>14.79644716</MEAN_MOTION><ECCENTRICITY>.0008745</ECCENTRICITY><INCLINATION>69.9700</INCLINATION><RA_OF_ASC_NODE>31.0788</RA_OF_ASC_NODE><ARG_OF_PERICENTER>244.8872</ARG_OF_PERICENTER><MEAN_ANOMALY>115.1370</MEAN_ANOMALY></meanElements><tleParameters><EPHEMERIS_TYPE>0</EPHEMERIS_TYPE><CLASSIFICATION_TYPE>U</CLASSIFICATION_TYPE><NORAD_CAT_ID>23545</NORAD_CAT_ID><ELEMENT_SET_NO>999</ELEMENT_SET_NO><REV_AT_EPOCH>55027</REV_AT_EPOCH><BSTAR>.21234E-2</BSTAR><MEAN_MOTION_DOT>.15921E-3</MEAN_MOTION_DOT><MEAN_MOTION_DDOT>0</MEAN_MOTION_DDOT></tleParameters></data></segment></body></omm>
<omm id="CCSDS_OMM_VERS" version="2.0">
<header><CREATION_DATE/><ORIGINATOR/></header><body><segment><metadata><OBJECT_NAME>ORBCOMM FM02 [-]</OBJECT_NAME><OBJECT_ID>1995-017B</OBJECT_ID><CENTER_NAME>EARTH</CENTER_NAME><REF_FRAME>TEME</REF_FRAME><TIME_SYSTEM>UTC</TIME_SYSTEM><MEAN_ELEMENT_THEORY>SGP4</MEAN_ELEMENT_THEORY></metadata><data><meanElements><EPOCH>2024-04-24T05:41:13.426944</EPOCH><MEAN_MOTION>14.79216617</MEAN_MOTION><ECCENTRICITY>.0010494</ECCENTRICITY><INCLINATION>69.9712</INCLINATION><RA_OF_ASC_NODE>49.7486</RA_OF_ASC_NODE><ARG_OF_PERICENTER>238.5496</ARG_OF_PERICENTER><MEAN_ANOMALY>121.4628</MEAN_ANOMALY></meanElements><tleParameters><EPHEMERIS_TYPE>0</EPHEMERIS_TYPE><CLASSIFICATION_TYPE>U</CLASSIFICATION_TYPE><NORAD_CAT_ID>23546</NORAD_CAT_ID><ELEMENT_SET_NO>999</ELEMENT_SET_NO><REV_AT_EPOCH>55026</REV_AT_EPOCH><BSTAR>.21212E-2</BSTAR><MEAN_MOTION_DOT>.15747E-3</MEAN_MOTION_DOT><MEAN_MOTION_DDOT>0</MEAN_MOTION_DDOT></tleParameters></data></segment></body></omm>
<omm id="CCSDS_OMM_VERS" version="2.0">
<header><CREATION_DATE/><ORIGINATOR/></header><body><segment><metadata><OBJECT_NAME>ORBCOMM FM08 [-]</OBJECT_NAME><OBJECT_ID>1997-084A</OBJECT_ID><CENTER_NAME>EARTH</CENTER_NAME><REF_FRAME>TEME</REF_FRAME><TIME_SYSTEM>UTC</TIME_SYSTEM><MEAN_ELEMENT_THEORY>SGP4</MEAN_ELEMENT_THEORY></metadata><data><meanElements><EPOCH>2024-04-24T07:53:27.419712</EPOCH><MEAN_MOTION>14.42431313</MEAN_MOTION><ECCENTRICITY>.0008503</ECCENTRICITY><INCLINATION>45.0129</INCLINATION><RA_OF_ASC_NODE>213.3634</RA_OF_ASC_NODE><ARG_OF_PERICENTER>283.0919</ARG_OF_PERICENTER><MEAN_ANOMALY>76.8982</MEAN_ANOMALY></meanElements><tleParameters><EPHEMERIS_TYPE>0</EPHEMERIS_TYPE><CLASSIFICATION_TYPE>U</CLASSIFICATION_TYPE><NORAD_CAT_ID>25112</NORAD_CAT_ID><ELEMENT_SET_NO>999</ELEMENT_SET_NO><REV_AT_EPOCH>38099</REV_AT_EPOCH><BSTAR>.15336E-2</BSTAR><MEAN_MOTION_DOT>.4986E-4</MEAN_MOTION_DOT><MEAN_MOTION_DDOT>0</MEAN_MOTION_DDOT></tleParameters></data></segment></body></omm>
<omm id="CCSDS_OMM_VERS" version="2.0">
<header><CREATION_DATE/><ORIGINATOR/></header><body><segment><metadata><OBJECT_NAME>ORBCOMM FM10 [-]</OBJECT_NAME><OBJECT_ID>1997-084B</OBJECT_ID><CENTER_NAME>EARTH</CENTER_NAME><REF_FRAME>TEME</REF_FRAME><TIME_SYSTEM>UTC</TIME_SYSTEM><MEAN_ELEMENT_THEORY>SGP4</MEAN_ELEMENT_THEORY></metadata><data><meanElements><EPOCH>2024-04-24T06:22:17.227488</EPOCH><MEAN_MOTION>14.42346911</MEAN_MOTION><ECCENTRICITY>.0006715</ECCENTRICITY><INCLINATION>45.0141</INCLINATION><RA_OF_ASC_NODE>215.5080</RA_OF_ASC_NODE><ARG_OF_PERICENTER>256.1977</ARG_OF_PERICENTER><MEAN_ANOMALY>103.8126</MEAN_ANOMALY></meanElements><tleParameters><EPHEMERIS_TYPE>0</EPHEMERIS_TYPE><CLASSIFICATION_TYPE>U</CLASSIFICATION_TYPE><NORAD_CAT_ID>25113</NORAD_CAT_ID><ELEMENT_SET_NO>999</ELEMENT_SET_NO><REV_AT_EPOCH>38097</REV_AT_EPOCH><BSTAR>.14567E-2</BSTAR><MEAN_MOTION_DOT>.4719E-4</MEAN_MOTION_DOT><MEAN_MOTION_DDOT>0</MEAN_MOTION_DDOT></tleParameters></data></segment></body></omm>
<omm id="CCSDS_OMM_VERS" version="2.0">
<header><CREATION_DATE/><ORIGINATOR/></header><body><segment><metadata><OBJECT_NAME>ORBCOMM FM11 [+]</OBJECT_NAME><OBJECT_ID>1997-084C</OBJECT_ID><CENTER_NAME>EARTH</CENTER_NAME><REF_FRAME>TEME</REF_FRAME><TIME_SYSTEM>UTC</TIME_SYSTEM><MEAN_ELEMENT_THEORY>SGP4</MEAN_ELEMENT_THEORY></metadata><data><meanElements><EPOCH>2024-04-24T06:47:16.867104</EPOCH><MEAN_MOTION>14.42228667</MEAN_MOTION><ECCENTRICITY>.0007434</ECCENTRICITY><INCLINATION>45.0128</INCLINATION><RA_OF_ASC_NODE>215.4814</RA_OF_ASC_NODE><ARG_OF_PERICENTER>258.5648</ARG_OF_PERICENTER><MEAN_ANOMALY>101.4367</MEAN_ANOMALY></meanElements><tleParameters><EPHEMERIS_TYPE>0</EPHEMERIS_TYPE><CLASSIFICATION_TYPE>U</CLASSIFICATION_TYPE><NORAD_CAT_ID>25114</NORAD_CAT_ID><ELEMENT_SET_NO>999</ELEMENT_SET_NO><REV_AT_EPOCH>38096</REV_AT_EPOCH><BSTAR>.14218E-2</BSTAR><MEAN_MOTION_DOT>.4591E-4</MEAN_MOTION_DOT><MEAN_MOTION_DDOT>0</MEAN_MOTION_DDOT></tleParameters></data></segment></body></omm>
<omm id="CCSDS_OMM_VERS" version="2.0">
<header><CREATION_DATE/><ORIGINATOR/></header><body><segment><metadata><OBJECT_NAME>ORBCOMM FM12 [-]</OBJECT_NAME><OBJECT_ID>1997-084D</OBJECT_ID><CENTER_NAME>EARTH</CENTER_NAME><REF_FRAME>TEME</REF_FRAME><TIME_SYSTEM>UTC</TIME_SYSTEM><MEAN_ELEMENT_THEORY>SGP4</MEAN_ELEMENT_THEORY></metadata><data><meanElements><EPOCH>2024-04-24T05:48:48.233952</EPOCH><MEAN_MOTION>14.42186597</MEAN_MOTION><ECCENTRICITY>.0006582</ECCENTRICITY><INCLINATION>45.0136</INCLINATION><RA_OF_ASC_NODE>215.3664</RA_OF_ASC_NODE><ARG_OF_PERICENTER>258.1273</ARG_OF_PERICENTER><MEAN_ANOMALY>101.8839</MEAN_ANOMALY></meanElements><tleParameters><EPHEMERIS_TYPE>0</EPHEMERIS_TYPE><CLASSIFICATION_TYPE>U</CLASSIFICATION_TYPE><NORAD_CAT_ID>25115</NORAD_CAT_ID><ELEMENT_SET_NO>999</ELEMENT_SET_NO><REV_AT_EPOCH>38096</REV_AT_EPOCH><BSTAR>.14344E-2</BSTAR><MEAN_MOTION_DOT>.4629E-4</MEAN_MOTION_DOT><MEAN_MOTION_DDOT>0</MEAN_MOTION_DDOT></tleParameters></data></segment></body></omm>
<omm id="CCSDS_OMM_VERS" version="2.0">
<header><CREATION_DATE/><ORIGINATOR/></header><body><segment><metadata><OBJECT_NAME>ORBCOMM FM09 [-]</OBJECT_NAME><OBJECT_ID>1997-084E</OBJECT_ID><CENTER_NAME>EARTH</CENTER_NAME><REF_FRAME>TEME</REF_FRAME><TIME_SYSTEM>UTC</TIME_SYSTEM><MEAN_ELEMENT_THEORY>SGP4</MEAN_ELEMENT_THEORY></metadata><data><meanElements><EPOCH>2024-04-23T08:27:43.429536</EPOCH><MEAN_MOTION>14.42146534</MEAN_MOTION><ECCENTRICITY>.0007665</ECCENTRICITY><INCLINATION>45.0149</INCLINATION><RA_OF_ASC_NODE>220.2922</RA_OF_ASC_NODE><ARG_OF_PERICENTER>244.1146</ARG_OF_PERICENTER><MEAN_ANOMALY>115.8914</MEAN_ANOMALY></meanElements><tleParameters><EPHEMERIS_TYPE>0</EPHEMERIS_TYPE><CLASSIFICATION_TYPE>U</CLASSIFICATION_TYPE><NORAD_CAT_ID>25116</NORAD_CAT_ID><ELEMENT_SET_NO>999</ELEMENT_SET_NO><REV_AT_EPOCH>38080</REV_AT_EPOCH><BSTAR>.14493E-2</BSTAR><MEAN_MOTION_DOT>.4675E-4</MEAN_MOTION_DOT><MEAN_MOTION_DDOT>0</MEAN_MOTION_DDOT></tleParameters></data></segment></body></omm>

</ndm>
