ORBCOMM-X [-]           
1 21576U 91050C   24114.76614087  .00001180  00000+0  36930-3 0  9990
2 21576  98.3925 182.8614 0004051  32.4101 327.7337 14.42460186721637
ORBCOMM FM01 [-]        
1 23545U 95017A   24114.94214282  .00015921  00000+0  21234-2 0  9996
2 23545  69.9700  31.0788 0008745 244.8872 115.1370 14.79644716550274
ORBCOMM FM02 [-]        
1 23546U 95017B   24115.23696096  .00015747  00000+0  21212-2 0  9999
2 23546  69.9712  49.7486 0010494 238.5496 121.4628 14.79216617550265
ORBCOMM FM08 [-]        
1 25112U 97084A   24115.32878958  .00004986  00000+0  15336-2 0  9998
2 25112  45.0129 213.3634 0008503 283.0919  76.8982 14.42431313380999
ORBCOMM FM10 [-]        
1 25113U 97084B   24115.26547717  .00004719  00000+0  14567-2 0  9997
2 25113  45.0141 215.5080 0006715 256.1977 103.8126 14.42346911380979
ORBCOMM FM11 [+]        
1 25114U 97084C   24115.28283411  .00004591  00000+0  14218-2 0  9999
2 25114  45.0128 215.4814 0007434 258.5648 101.4367 14.42228667380966
ORBCOMM FM12 [-]        
1 25115U 97084D   24115.24222493  .00004629  00000+0  14344-2 0  9991
2 25115  45.0136 215.3664 0006582 258.1273 101.8839 14.42186597380964
ORBCOMM FM09 [-]        
1 25116U 97084E   24114.35258599  .00004675  00000+0  14493-2 0  9995
2 25116  45.0149 220.2922 0007665 244.1146 115.8914 14.42146534380807
